SWARM B                 
1 39451U 13067A   26199.88335342  .00001911  00000+0  67177-4 0  9995
2 39451  87.7464 332.6885 0002224  86.1050 274.0453 15.28731201688080
SWARM A                 
1 39452U 13067B   26199.82954145  .00005797  00000+0  97405-4 0  9991
2 39452  87.3298  44.4737 0003340  92.4204 267.7440 15.51500932711158
SWARM C                 
1 39453U 13067C   26199.89394919  .00005843  00000+0  98178-4 0  9996
2 39453  87.3298  43.0305 0003324  92.0673 268.0969 15.51501143711125
BRITE-CA1 (TORONTO)     
1 40020U 14033L   26199.90342447  .00000523  00000+0  86047-4 0  9995
2 40020  97.9776 328.2536 0078754 174.3960 185.8147 14.72726843646883
OCO 2                   
1 40059U 14035A   26199.88055284  .00000166  00000+0  46966-4 0  9995
2 40059  98.2020 140.6925 0001418  81.0719 279.0640 14.57133790640668
BRITE-PL2 (HEWELIUSZ)   
1 40119U 14049B   26199.83808339  .00000663  00000+0  66530-4 0  9990
2 40119  97.9121 312.0880 0013981  10.3613 349.7893 14.94691922646178
MMS 1                   
1 40482U 15011A   26200.00001157 -.00001271  00000+0  00000+0 0  9990
2 40482  72.4926 348.4171 8306883 168.0615 303.9236  0.28215637  1372
MMS 2                   
1 40483U 15011B   26200.00001157 -.00001272  00000+0  00000+0 0  9992
2 40483  72.4966 348.4161 8309692 168.0643 303.9105  0.28215563  1371
MMS 3                   
1 40484U 15011C   26200.00001157 -.00001271  00000+0  00000+0 0  9992
2 40484  72.4963 348.4280 8308060 168.0720 303.8844  0.28215666  1345
MMS 4                   
1 40485U 15011D   26200.00001157 -.00001271  00000+0  00000+0 0  9993
2 40485  72.4919 348.4114 8308013 168.0819 303.8801  0.28215691  1374
ASTROSAT                
1 40930U 15052A   26199.91128231  .00001085  00000+0  50454-4 0  9998
2 40930   5.9971 287.0074 0007523 130.6076 229.4707 14.82555310584548
DAMPE                   
1 41173U 15078A   26199.93641189  .00000677  00000+0  25298-4 0  9994
2 41173  97.4564 205.5619 0011143 331.8331  28.2306 15.30858797589403
PISAT                   
1 41784U 16059B   26199.88531793  .00000433  00000+0  81293-4 0  9992
2 41784  97.8193 198.9785 0030537 103.5620 256.8991 14.69033314524392
HXMT (HUIYAN)           
1 42758U 17034A   26199.83726411  .00001877  00000+0  99358-4 0  9990
2 42758  43.0153   6.7731 0031835 343.6262  16.3556 15.18705784502474
FLYING LAPTOP           
1 42831U 17042G   26199.91245191  .00002052  00000+0  16327-3 0  9991
2 42831  97.4828 354.2552 0019539  20.6794 339.5217 15.01327988491210
ZHANGHENG 1-01 (CSES-1) 
1 43194U 18015C   26199.91784554  .00003589  00000+0  16636-3 0  9995
2 43194  97.6900   6.2105 0016697 152.5708 207.6412 15.20636725469463
SALSAT                  
1 46495U 20068K   26199.01462697  .00004061  00000+0  14177-3 0  9999
2 46495  97.8861 203.9671 0009495 182.8082 177.3106 15.30195257320078
IXPE                    
1 49954U 21121A   26200.00001157  .00006465  00000+0  32651-3 0  9992
2 49954   0.2304  76.3292 0007237 199.4304  55.6090 15.10508441  5548
SMILE                   
1 69123U 26109A   26194.95939329  .00000936  00000+0  00000+0 0  9996
2 69123  70.0512 206.6048 8313707 286.9544   0.1879  0.47500629    65
