OBJECT_NAME,OBJECT_ID,EPOCH,MEAN_MOTION,ECCENTRICITY,INCLINATION,RA_OF_ASC_NODE,ARG_OF_PERICENTER,MEAN_ANOMALY,EPHEMERIS_TYPE,CLASSIFICATION_TYPE,NORAD_CAT_ID,ELEMENT_SET_NO,REV_AT_EPOCH,BSTAR,MEAN_MOTION_DOT,MEAN_MOTION_DDOT
SWARM B,2013-067A,2026-07-18T21:12:01.735488,15.28731201,.0002224,87.7464,332.6885,86.1050,274.0453,0,U,39451,999,68808,.671773E-4,.1911E-4,0
SWARM A,2013-067B,2026-07-18T19:54:32.381280,15.51500932,.00033403,87.3298,44.4737,92.4204,267.7440,0,U,39452,999,71115,.97404767E-4,.5797E-4,0
SWARM C,2013-067C,2026-07-18T21:27:17.210016,15.51501143,.00033249,87.3298,43.0305,92.0673,268.0969,0,U,39453,999,71112,.98177959E-4,.5843E-4,0
BRITE-CA1 (TORONTO),2014-033L,2026-07-18T21:40:55.874208,14.72726843,.00787542,97.9776,328.2536,174.3960,185.8147,0,U,40020,999,64688,.86046559E-4,.523E-5,0
OCO 2,2014-035A,2026-07-18T21:07:59.765376,14.57133790,.00014182,98.2020,140.6925,81.0719,279.0640,0,U,40059,999,64066,.46966434E-4,.166E-5,0
BRITE-PL2 (HEWELIUSZ),2014-049B,2026-07-18T20:06:50.404896,14.94691922,.0013981,97.9121,312.0880,10.3613,349.7893,0,U,40119,999,64617,.66529727E-4,.663E-5,0
MMS 1,2015-011A,2026-07-19T00:00:00.999648,0.28215637,.83068831,72.4926,348.4171,168.0615,303.9236,0,U,40482,999,137,0,-.1271E-4,0
MMS 2,2015-011B,2026-07-19T00:00:00.999648,0.28215563,.83096927,72.4966,348.4161,168.0643,303.9105,0,U,40483,999,137,0,-.1272E-4,0
MMS 3,2015-011C,2026-07-19T00:00:00.999648,0.28215666,.83080601,72.4963,348.4280,168.0720,303.8844,0,U,40484,999,134,0,-.1271E-4,0
MMS 4,2015-011D,2026-07-19T00:00:00.999648,0.28215691,.83080132,72.4919,348.4114,168.0819,303.8801,0,U,40485,999,137,0,-.1271E-4,0
ASTROSAT,2015-052A,2026-07-18T21:52:14.791584,14.82555310,.00075234,5.9971,287.0074,130.6076,229.4707,0,U,40930,999,58454,.50453866E-4,.1085E-4,0
DAMPE,2015-078A,2026-07-18T22:28:25.987296,15.30858797,.00111439,97.4564,205.5619,331.8331,28.2306,0,U,41173,999,58940,.25298256E-4,.677E-5,0
PISAT,2016-059B,2026-07-18T21:14:51.469152,14.69033314,.00305378,97.8193,198.9785,103.5620,256.8991,0,U,41784,999,52439,.81293294E-4,.433E-5,0
HXMT (HUIYAN),2017-034A,2026-07-18T20:05:39.619104,15.18705784,.00318356,43.0153,6.7731,343.6262,16.3556,0,U,42758,999,50247,.99357819E-4,.1877E-4,0
FLYING LAPTOP,2017-042G,2026-07-18T21:53:55.845024,15.01327988,.00195396,97.4828,354.2552,20.6794,339.5217,0,U,42831,999,49121,.16326689E-3,.2052E-4,0
ZHANGHENG 1-01 (CSES-1),2018-015C,2026-07-18T22:01:41.854656,15.20636725,.00166979,97.6900,6.2105,152.5708,207.6412,0,U,43194,999,46946,.16636195E-3,.3589E-4,0
SALSAT,2020-068K,2026-07-18T00:21:03.770208,15.30195257,.00094957,97.8861,203.9671,182.8082,177.3106,0,U,46495,999,32007,.14176866E-3,.4061E-4,0
IXPE,2021-121A,2026-07-19T00:00:00.999648,15.10508441,.00072371,0.2304,76.3292,199.4304,55.6090,0,U,49954,999,554,.32651057E-3,.6465E-4,0
SMILE,2026-109A,2026-07-13T23:01:31.580256,0.47500629,.83137076,70.0512,206.6048,286.9544,0.1879,0,U,69123,999,6,0,.936E-5,0
